{"type": "FeatureCollection", "features": [ {"type": "Feature", "properties": {"norad_id": 43010, "name": "FENGYUN 3D", "group": "weather", "lat": 52.402972843307055, "lon": -61.73701498447797, "alt_km": 821.8986621493614, "timestamp": "2025-12-09T20:37:08.925910+00:00", "meta": {"OBJECT_NAME": "FENGYUN 3D", "OBJECT_ID": "2017-072A", "EPOCH": "2025-12-09T15:17:39.650208", "MEAN_MOTION": 14.19681012, "ECCENTRICITY": 7.623e-05, "INCLINATION": 98.9892, "RA_OF_ASC_NODE": 309.9006, "ARG_OF_PERICENTER": 191.5364, "MEAN_ANOMALY": 168.5794, "EPHEMERIS_TYPE": 0, "CLASSIFICATION_TYPE": "U", "NORAD_CAT_ID": 43010, "ELEMENT_SET_NO": 999, "REV_AT_EPOCH": 41809, "BSTAR": -5.4313743e-05, "MEAN_MOTION_DOT": -1.61e-06, "MEAN_MOTION_DDOT": 0}, "tle": {"line1": "1 43010U 17072A   25343.63726447 -.00000161  00000+0 -54314-4 0  9991", "line2": "2 43010  98.9892 309.9006 0000762 191.5364 168.5794 14.19681012418091"}}, "geometry": {"type": "Point", "coordinates": [-61.73701498447797, 52.402972843307055]}}, {"type": "Feature", "properties": {"norad_id": 43013, "name": "NOAA 20 (JPSS-1)", "group": "weather", "lat": -27.22914224185019, "lon": 95.63690656637661, "alt_km": 833.3444612756412, "timestamp": "2025-12-09T20:37:08.925921+00:00", "meta": {"OBJECT_NAME": "NOAA 20 (JPSS-1)", "OBJECT_ID": "2017-073A", "EPOCH": "2025-12-09T14:34:12.125856", "MEAN_MOTION": 14.19524444, "ECCENTRICITY": 0.00021415, "INCLINATION": 98.7595, "RA_OF_ASC_NODE": 279.9382, "ARG_OF_PERICENTER": 91.7816, "MEAN_ANOMALY": 268.3605, "EPHEMERIS_TYPE": 0, "CLASSIFICATION_TYPE": "U", "NORAD_CAT_ID": 43013, "ELEMENT_SET_NO": 999, "REV_AT_EPOCH": 41757, "BSTAR": 0.00010728253, "MEAN_MOTION_DOT": 1.82e-06, "MEAN_MOTION_DDOT": 0}, "tle": {"line1": "1 43013U 17073A   25343.60708479  .00000182  00000+0  10728-3 0  9998", "line2": "2 43013  98.7595 279.9382 0002141  91.7816 268.3605 14.19524444417578"}}, "geometry": {"type": "Point", "coordinates": [95.63690656637661, -27.22914224185019]}}, {"type": "Feature", "properties": {"norad_id": 43226, "name": "GOES 17", "group": "weather", "lat": -0.2369678736259801, "lon": -61.35261857692545, "alt_km": 35772.95798406522, "timestamp": "2025-12-09T20:37:08.925934+00:00", "meta": {"OBJECT_NAME": "GOES 17", "OBJECT_ID": "2018-022A", "EPOCH": "2025-12-09T12:25:42.053376", "MEAN_MOTION": 1.0027167, "ECCENTRICITY": 0.00034001, "INCLINATION": 0.4517, "RA_OF_ASC_NODE": 89.1538, "ARG_OF_PERICENTER": 186.2479, "MEAN_ANOMALY": 260.0352, "EPHEMERIS_TYPE": 0, "CLASSIFICATION_TYPE": "U", "NORAD_CAT_ID": 43226, "ELEMENT_SET_NO": 999, "REV_AT_EPOCH": 2852, "BSTAR": 0, "MEAN_MOTION_DOT": -1.8e-06, "MEAN_MOTION_DDOT": 0}, "tle": {"line1": "1 43226U 18022A   25343.51784784 -.00000180  00000+0  00000+0 0  9999", "line2": "2 43226   0.4517  89.1538 0003400 186.2479 260.0352  1.00271670 28523"}}, "geometry": {"type": "Point", "coordinates": [-61.35261857692545, -0.2369678736259801]}}, {"type": "Feature", "properties": {"norad_id": 43491, "name": "FENGYUN 2H", "group": "weather", "lat": 1.1369498738233867, "lon": 107.44578961780576, "alt_km": 35795.4916581452, "timestamp": "2025-12-09T20:37:08.925950+00:00", "meta": {"OBJECT_NAME": "FENGYUN 2H", "OBJECT_ID": "2018-050A", "EPOCH": "2025-12-09T13:57:05.506272", "MEAN_MOTION": 1.00271069, "ECCENTRICITY": 0.00029387, "INCLINATION": 2.5424, "RA_OF_ASC_NODE": 81.3494, "ARG_OF_PERICENTER": 164.7432, "MEAN_ANOMALY": 121.1115, "EPHEMERIS_TYPE": 0, "CLASSIFICATION_TYPE": "U", "NORAD_CAT_ID": 43491, "ELEMENT_SET_NO": 999, "REV_AT_EPOCH": 2753, "BSTAR": 0, "MEAN_MOTION_DOT": -1.28e-06, "MEAN_MOTION_DDOT": 0}, "tle": {"line1": "1 43491U 18050A   25343.58131373 -.00000128  00000+0  00000+0 0  9993", "line2": "2 43491   2.5424  81.3494 0002938 164.7432 121.1115  1.00271069 27533"}}, "geometry": {"type": "Point", "coordinates": [107.44578961780576, 1.1369498738233867]}}, {"type": "Feature", "properties": {"norad_id": 43689, "name": "METOP-C", "group": "weather", "lat": -31.58971968242012, "lon": 47.0717571270263, "alt_km": 826.0448682932674, "timestamp": "2025-12-09T20:37:08.925962+00:00", "meta": {"OBJECT_NAME": "METOP-C", "OBJECT_ID": "2018-087A", "EPOCH": "2025-12-09T14:00:43.750944", "MEAN_MOTION": 14.21510144, "ECCENTRICITY": 0.00014706, "INCLINATION": 98.6934, "RA_OF_ASC_NODE": 41.4018, "ARG_OF_PERICENTER": 47.8138, "MEAN_ANOMALY": 312.3164, "EPHEMERIS_TYPE": 0, "CLASSIFICATION_TYPE": "U", "NORAD_CAT_ID": 43689, "ELEMENT_SET_NO": 999, "REV_AT_EPOCH": 36789, "BSTAR": 0.00013738707, "MEAN_MOTION_DOT": 2.57e-06, "MEAN_MOTION_DDOT": 0}, "tle": {"line1": "1 43689U 18087A   25343.58383971  .00000257  00000+0  13739-3 0  9994", "line2": "2 43689  98.6934  41.4018 0001470  47.8138 312.3164 14.21510144367898"}}, "geometry": {"type": "Point", "coordinates": [47.0717571270263, -31.58971968242012]}}, {"type": "Feature", "properties": {"norad_id": 43823, "name": "GEO-KOMPSAT-2A", "group": "weather", "lat": 0.043520258047250966, "lon": 156.39226521442438, "alt_km": 35786.01200049335, "timestamp": "2025-12-09T20:37:08.925973+00:00", "meta": {"OBJECT_NAME": "GEO-KOMPSAT-2A", "OBJECT_ID": "2018-100A", "EPOCH": "2025-12-08T09:04:40.751616", "MEAN_MOTION": 1.00270893, "ECCENTRICITY": 1.774e-05, "INCLINATION": 0.0576, "RA_OF_ASC_NODE": 113.8278, "ARG_OF_PERICENTER": 87.1447, "MEAN_ANOMALY": 140.8536, "EPHEMERIS_TYPE": 0, "CLASSIFICATION_TYPE": "U", "NORAD_CAT_ID": 43823, "ELEMENT_SET_NO": 999, "REV_AT_EPOCH": 2571, "BSTAR": 0, "MEAN_MOTION_DOT": -3.41e-06, "MEAN_MOTION_DDOT": 0}, "tle": {"line1": "1 43823U 18100A   25342.37824944 -.00000341  00000+0  00000+0 0  9994", "line2": "2 43823   0.0576 113.8278 0000177  87.1447 140.8536  1.00270893 25718"}}, "geometry": {"type": "Point", "coordinates": [156.39226521442438, 0.043520258047250966]}}, {"type": "Feature", "properties": {"norad_id": 44387, "name": "METEOR-M2 2", "group": "weather", "lat": 12.858372676184203, "lon": -38.49693449387544, "alt_km": 812.5940222560375, "timestamp": "2025-12-09T20:37:08.925984+00:00", "meta": {"OBJECT_NAME": "METEOR-M2 2", "OBJECT_ID": "2019-038A", "EPOCH": "2025-12-09T13:48:51.101280", "MEAN_MOTION": 14.24289035, "ECCENTRICITY": 0.00011048, "INCLINATION": 98.897, "RA_OF_ASC_NODE": 323.2652, "ARG_OF_PERICENTER": 154.4538, "MEAN_ANOMALY": 205.6695, "EPHEMERIS_TYPE": 0, "CLASSIFICATION_TYPE": "U", "NORAD_CAT_ID": 44387, "ELEMENT_SET_NO": 999, "REV_AT_EPOCH": 33430, "BSTAR": 0.00012173569, "MEAN_MOTION_DOT": 2.35e-06, "MEAN_MOTION_DDOT": 0}, "tle": {"line1": "1 44387U 19038A   25343.57559145  .00000235  00000+0  12174-3 0  9992", "line2": "2 44387  98.8970 323.2652 0001104 154.4538 205.6695 14.24289035334302"}}, "geometry": {"type": "Point", "coordinates": [-38.49693449387544, 12.858372676184203]}}, {"type": "Feature", "properties": {"norad_id": 47719, "name": "ARKTIKA-M 1", "group": "weather", "lat": 62.35100290384333, "lon": -170.31751580952044, "alt_km": 38182.787197455495, "timestamp": "2025-12-09T20:37:08.925997+00:00", "meta": {"OBJECT_NAME": "ARKTIKA-M 1", "OBJECT_ID": "2021-016A", "EPOCH": "2025-12-09T14:03:23.859648", "MEAN_MOTION": 2.00631311, "ECCENTRICITY": 0.72025383, "INCLINATION": 63.1769, "RA_OF_ASC_NODE": 84.4506, "ARG_OF_PERICENTER": 269.1117, "MEAN_ANOMALY": 15.6235, "EPHEMERIS_TYPE": 0, "CLASSIFICATION_TYPE": "U", "NORAD_CAT_ID": 47719, "ELEMENT_SET_NO": 999, "REV_AT_EPOCH": 3498, "BSTAR": 0, "MEAN_MOTION_DOT": -6.1e-07, "MEAN_MOTION_DDOT": 0}, "tle": {"line1": "1 47719U 21016A   25343.58569282 -.00000061  00000+0  00000+0 0  9996", "line2": "2 47719  63.1769  84.4506 7202538 269.1117  15.6235  2.00631311 34986"}}, "geometry": {"type": "Point", "coordinates": [-170.31751580952044, 62.35100290384333]}}, {"type": "Feature", "properties": {"norad_id": 49008, "name": "FENGYUN 3E", "group": "weather", "lat": 17.827323676005523, "lon": -18.424086770643473, "alt_km": 826.083066529287, "timestamp": "2025-12-09T20:37:08.926008+00:00", "meta": {"OBJECT_NAME": "FENGYUN 3E", "OBJECT_ID": "2021-062A", "EPOCH": "2025-12-09T13:46:10.102656", "MEAN_MOTION": 14.19878748, "ECCENTRICITY": 6.101e-05, "INCLINATION": 98.7473, "RA_OF_ASC_NODE": 344.132, "ARG_OF_PERICENTER": 291.1226, "MEAN_ANOMALY": 68.9885, "EPHEMERIS_TYPE": 0, "CLASSIFICATION_TYPE": "U", "NORAD_CAT_ID": 49008, "ELEMENT_SET_NO": 999, "REV_AT_EPOCH": 22967, "BSTAR": 1.795621e-05, "MEAN_MOTION_DOT": -6e-08, "MEAN_MOTION_DDOT": 0}, "tle": {"line1": "1 49008U 21062A   25343.57372804 -.00000006  00000+0  17956-4 0  9993", "line2": "2 49008  98.7473 344.1320 0000610 291.1226  68.9885 14.19878748229675"}}, "geometry": {"type": "Point", "coordinates": [-18.424086770643473, 17.827323676005523]}}, {"type": "Feature", "properties": {"norad_id": 51850, "name": "GOES 18", "group": "weather", "lat": -0.011187210496373138, "lon": -108.88073359955679, "alt_km": 35784.25850942712, "timestamp": "2025-12-09T20:37:08.926026+00:00", "meta": {"OBJECT_NAME": "GOES 18", "OBJECT_ID": "2022-021A", "EPOCH": "2025-12-09T12:00:33.174144", "MEAN_MOTION": 1.00271048, "ECCENTRICITY": 7.262e-05, "INCLINATION": 0.0386, "RA_OF_ASC_NODE": 155.385, "ARG_OF_PERICENTER": 145.2667, "MEAN_ANOMALY": 180.9753, "EPHEMERIS_TYPE": 0, "CLASSIFICATION_TYPE": "U", "NORAD_CAT_ID": 51850, "ELEMENT_SET_NO": 999, "REV_AT_EPOCH": 469, "BSTAR": 0, "MEAN_MOTION_DOT": 9.9e-07, "MEAN_MOTION_DDOT": 0}, "tle": {"line1": "1 51850U 22021A   25343.50038396  .00000099  00000+0  00000+0 0  9993", "line2": "2 51850   0.0386 155.3850 0000726 145.2667 180.9753  1.00271048  4696"}}, "geometry": {"type": "Point", "coordinates": [-108.88073359955679, -0.011187210496373138]}}]}